{
    "links": {
        "self": "http://www.neowsapp.com/rest/v1/neo/3279958?api_key=iIulBulltgU6a56xZRHN4H3l9WmuAYTsLGpBGhQ2"
    },
    "id": "3279958",
    "neo_reference_id": "3279958",
    "name": "(2005 MR1)",
    "designation": "2005 MR1",
    "nasa_jpl_url": "http://ssd.jpl.nasa.gov/sbdb.cgi?sstr=3279958",
    "absolute_magnitude_h": 23.3,
    "estimated_diameter": {
        "kilometers": {
            "estimated_diameter_min": 0.058150704,
            "estimated_diameter_max": 0.130028927
        },
        "meters": {
            "estimated_diameter_min": 58.1507039646,
            "estimated_diameter_max": 130.0289270043
        },
        "miles": {
            "estimated_diameter_min": 0.0361331611,
            "estimated_diameter_max": 0.0807962044
        },
        "feet": {
            "estimated_diameter_min": 190.7831555951,
            "estimated_diameter_max": 426.6041048727
        }
    },
    "is_potentially_hazardous_asteroid": false,
    "close_approach_data": [
        {
            "close_approach_date": "1965-09-03",
            "close_approach_date_full": "1965-Sep-03 01:06",
            "epoch_date_close_approach": -136594440000,
            "relative_velocity": {
                "kilometers_per_second": "19.6005263722",
                "kilometers_per_hour": "70561.8949398563",
                "miles_per_hour": "43844.4174419346"
            },
            "miss_distance": {
                "astronomical": "0.4226113698",
                "lunar": "164.3958228522",
                "kilometers": "63221760.759862326",
                "miles": "39284180.5045230588"
            },
            "orbiting_body": "Earth"
        },
        {
            "close_approach_date": "2005-06-26",
            "close_approach_date_full": "2005-Jun-26 11:31",
            "epoch_date_close_approach": 1119785460000,
            "relative_velocity": {
                "kilometers_per_second": "7.6536372608",
                "kilometers_per_hour": "27553.0941390398",
                "miles_per_hour": "17120.4211887828"
            },
            "miss_distance": {
                "astronomical": "0.0730898356",
                "lunar": "28.4319460484",
                "kilometers": "10934083.724410172",
                "miles": "6794124.5786054936"
            },
            "orbiting_body": "Earth"
        }
    ],
    "orbital_data": {
        "orbit_id": "13",
        "orbit_determination_date": "2017-04-06 09:10:50",
        "first_observation_date": "2005-06-18",
        "last_observation_date": "2005-09-23",
        "data_arc_in_days": 97,
        "observations_used": 44,
        "orbit_uncertainty": "5",
        "minimum_orbit_intersection": ".0709347",
        "jupiter_tisserand_invariant": "3.324",
        "epoch_osculation": "2459000.5",
        "eccentricity": ".5532696117632169",
        "semi_major_axis": "2.362013403372234",
        "inclination": "3.291912480057465",
        "ascending_node_longitude": "196.2746449285318",
        "orbital_period": "1325.934172115393",
        "perihelion_distance": "1.055183164708964",
        "perihelion_argument": "93.66553995805133",
        "aphelion_distance": "3.668843642035504",
        "perihelion_time": "2458859.346451278417",
        "mean_anomaly": "38.32413298369057",
        "mean_motion": ".2715066913357069",
        "equinox": "J2000",
        "orbit_class": {
            "orbit_class_type": "AMO",
            "orbit_class_description": "Near-Earth asteroid orbits similar to that of 1221 Amor",
            "orbit_class_range": "1.017 AU < q (perihelion) < 1.3 AU"
        }
    },
    "is_sentry_object": false
}